STARLINK-35652          
1 66393U 25257P   25326.50003471  .00079208  00000+0  54135-3 0  9992
2 66393  53.1558   1.3143 0001265  87.5557 224.3771 15.74132941  3241
STARLINK-35672          
1 66394U 25257Q   25326.50003471  .00169129  00000+0  11401-2 0  9993
2 66394  53.1550   1.3064 0001730  85.8395 229.8809 15.74105413  3240
STARLINK-35681          
1 66395U 25257R   25326.50003471  .00233757  00000+0  15641-2 0  9993
2 66395  53.1563   1.3030 0000674  97.3599 220.2635 15.74074976  3081
STARLINK-35669          
1 66396U 25257S   25326.50003471  .00086954  00000+0  59338-3 0  9991
2 66396  53.1559   1.2986 0000770  71.7290 247.8474 15.74130686  3242
STARLINK-35510          
1 66397U 25257T   25326.50003471  .00133752  00000+0  90666-3 0  9990
2 66397  53.1564   1.2942 0001647  87.3604 234.1417 15.74097613  3245
STARLINK-35642          
1 66398U 25257U   25326.50003471  .00044767  00000+0  30863-3 0  9991
2 66398  53.1570   1.2899 0000968  64.0177 259.3897 15.74166837  3242
STARLINK-35657          
1 66399U 25257V   25326.50003471  .00038276  00000+0  26475-3 0  9994
2 66399  53.1567   1.2866 0001117  72.6972 252.6336 15.74163078  3246
STARLINK-35667          
1 66400U 25257W   25326.50003471  .00030903  00000+0  21487-3 0  9994
2 66400  53.1569   1.2784 0001659  82.2934 246.8905 15.74150204  3240
STARLINK-35668          
1 66401U 25257X   25326.50003471 -.00006102  00000+0 -37414-4 0  9999
2 66401  53.1568   1.2739 0000921  63.3657 267.7116 15.74181503  3245
STARLINK-35644          
1 66402U 25257Y   25326.50003471 -.00069818  00000+0 -47586-3 0  9993
2 66402  53.1567   1.2818 0001912  83.2724 243.9596 15.74210503  3241
STARLINK-35602          
1 66403U 25257Z   25326.50003471 -.00033322  00000+0 -22377-3 0  9996
2 66403  53.1562   1.2699 0000974  77.1792 255.7714 15.74224875  3248
STARLINK-35691          
1 66404U 25257AA  25326.50003471  .00114701  00000+0  77926-3 0  9996
2 66404  53.1568   1.2660 0001099  85.0070 249.9233 15.74116971  3247
