CCSDS_OMM_VERS = 2.0
CREATION_DATE  = 
ORIGINATOR     = 

OBJECT_NAME    = STARLINK-35652
OBJECT_ID      = 2025-257P
CENTER_NAME    = EARTH
REF_FRAME      = TEME
TIME_SYSTEM    = UTC
MEAN_ELEMENT_THEORY = SGP/SGP4

EPOCH          = 2025-11-22T12:00:02.998944
MEAN_MOTION    = 15.74132941
ECCENTRICITY   = .0001265
INCLINATION    = 53.1558
RA_OF_ASC_NODE = 1.3143
ARG_OF_PERICENTER = 87.5557
MEAN_ANOMALY   = 224.3771

EPHEMERIS_TYPE = 0
CLASSIFICATION_TYPE = U
NORAD_CAT_ID   = 66393
ELEMENT_SET_NO = 999
REV_AT_EPOCH   = 324
BSTAR          = .54135E-3
MEAN_MOTION_DOT = .79208E-3
MEAN_MOTION_DDOT = 0

CCSDS_OMM_VERS = 2.0
CREATION_DATE  = 
ORIGINATOR     = 

OBJECT_NAME    = STARLINK-35672
OBJECT_ID      = 2025-257Q
CENTER_NAME    = EARTH
REF_FRAME      = TEME
TIME_SYSTEM    = UTC
MEAN_ELEMENT_THEORY = SGP/SGP4

EPOCH          = 2025-11-22T12:00:02.998944
MEAN_MOTION    = 15.74105413
ECCENTRICITY   = .000173
INCLINATION    = 53.1550
RA_OF_ASC_NODE = 1.3064
ARG_OF_PERICENTER = 85.8395
MEAN_ANOMALY   = 229.8809

EPHEMERIS_TYPE = 0
CLASSIFICATION_TYPE = U
NORAD_CAT_ID   = 66394
ELEMENT_SET_NO = 999
REV_AT_EPOCH   = 324
BSTAR          = .11401E-2
MEAN_MOTION_DOT = .169129E-2
MEAN_MOTION_DDOT = 0

CCSDS_OMM_VERS = 2.0
CREATION_DATE  = 
ORIGINATOR     = 

OBJECT_NAME    = STARLINK-35681
OBJECT_ID      = 2025-257R
CENTER_NAME    = EARTH
REF_FRAME      = TEME
TIME_SYSTEM    = UTC
MEAN_ELEMENT_THEORY = SGP/SGP4

EPOCH          = 2025-11-22T12:00:02.998944
MEAN_MOTION    = 15.74074976
ECCENTRICITY   = .0000674
INCLINATION    = 53.1563
RA_OF_ASC_NODE = 1.3030
ARG_OF_PERICENTER = 97.3599
MEAN_ANOMALY   = 220.2635

EPHEMERIS_TYPE = 0
CLASSIFICATION_TYPE = U
NORAD_CAT_ID   = 66395
ELEMENT_SET_NO = 999
REV_AT_EPOCH   = 308
BSTAR          = .15641E-2
MEAN_MOTION_DOT = .233757E-2
MEAN_MOTION_DDOT = 0

CCSDS_OMM_VERS = 2.0
CREATION_DATE  = 
ORIGINATOR     = 

OBJECT_NAME    = STARLINK-35669
OBJECT_ID      = 2025-257S
CENTER_NAME    = EARTH
REF_FRAME      = TEME
TIME_SYSTEM    = UTC
MEAN_ELEMENT_THEORY = SGP/SGP4

EPOCH          = 2025-11-22T12:00:02.998944
MEAN_MOTION    = 15.74130686
ECCENTRICITY   = .000077
INCLINATION    = 53.1559
RA_OF_ASC_NODE = 1.2986
ARG_OF_PERICENTER = 71.7290
MEAN_ANOMALY   = 247.8474

EPHEMERIS_TYPE = 0
CLASSIFICATION_TYPE = U
NORAD_CAT_ID   = 66396
ELEMENT_SET_NO = 999
REV_AT_EPOCH   = 324
BSTAR          = .59338E-3
MEAN_MOTION_DOT = .86954E-3
MEAN_MOTION_DDOT = 0

CCSDS_OMM_VERS = 2.0
CREATION_DATE  = 
ORIGINATOR     = 

OBJECT_NAME    = STARLINK-35510
OBJECT_ID      = 2025-257T
CENTER_NAME    = EARTH
REF_FRAME      = TEME
TIME_SYSTEM    = UTC
MEAN_ELEMENT_THEORY = SGP/SGP4

EPOCH          = 2025-11-22T12:00:02.998944
MEAN_MOTION    = 15.74097613
ECCENTRICITY   = .0001647
INCLINATION    = 53.1564
RA_OF_ASC_NODE = 1.2942
ARG_OF_PERICENTER = 87.3604
MEAN_ANOMALY   = 234.1417

EPHEMERIS_TYPE = 0
CLASSIFICATION_TYPE = U
NORAD_CAT_ID   = 66397
ELEMENT_SET_NO = 999
REV_AT_EPOCH   = 324
BSTAR          = .90666E-3
MEAN_MOTION_DOT = .133752E-2
MEAN_MOTION_DDOT = 0

CCSDS_OMM_VERS = 2.0
CREATION_DATE  = 
ORIGINATOR     = 

OBJECT_NAME    = STARLINK-35642
OBJECT_ID      = 2025-257U
CENTER_NAME    = EARTH
REF_FRAME      = TEME
TIME_SYSTEM    = UTC
MEAN_ELEMENT_THEORY = SGP/SGP4

EPOCH          = 2025-11-22T12:00:02.998944
MEAN_MOTION    = 15.74166837
ECCENTRICITY   = .0000968
INCLINATION    = 53.1570
RA_OF_ASC_NODE = 1.2899
ARG_OF_PERICENTER = 64.0177
MEAN_ANOMALY   = 259.3897

EPHEMERIS_TYPE = 0
CLASSIFICATION_TYPE = U
NORAD_CAT_ID   = 66398
ELEMENT_SET_NO = 999
REV_AT_EPOCH   = 324
BSTAR          = .30863E-3
MEAN_MOTION_DOT = .44767E-3
MEAN_MOTION_DDOT = 0

CCSDS_OMM_VERS = 2.0
CREATION_DATE  = 
ORIGINATOR     = 

OBJECT_NAME    = STARLINK-35657
OBJECT_ID      = 2025-257V
CENTER_NAME    = EARTH
REF_FRAME      = TEME
TIME_SYSTEM    = UTC
MEAN_ELEMENT_THEORY = SGP/SGP4

EPOCH          = 2025-11-22T12:00:02.998944
MEAN_MOTION    = 15.74163078
ECCENTRICITY   = .0001117
INCLINATION    = 53.1567
RA_OF_ASC_NODE = 1.2866
ARG_OF_PERICENTER = 72.6972
MEAN_ANOMALY   = 252.6336

EPHEMERIS_TYPE = 0
CLASSIFICATION_TYPE = U
NORAD_CAT_ID   = 66399
ELEMENT_SET_NO = 999
REV_AT_EPOCH   = 324
BSTAR          = .26475E-3
MEAN_MOTION_DOT = .38276E-3
MEAN_MOTION_DDOT = 0

CCSDS_OMM_VERS = 2.0
CREATION_DATE  = 
ORIGINATOR     = 

OBJECT_NAME    = STARLINK-35667
OBJECT_ID      = 2025-257W
CENTER_NAME    = EARTH
REF_FRAME      = TEME
TIME_SYSTEM    = UTC
MEAN_ELEMENT_THEORY = SGP/SGP4

EPOCH          = 2025-11-22T12:00:02.998944
MEAN_MOTION    = 15.74150204
ECCENTRICITY   = .0001659
INCLINATION    = 53.1569
RA_OF_ASC_NODE = 1.2784
ARG_OF_PERICENTER = 82.2934
MEAN_ANOMALY   = 246.8905

EPHEMERIS_TYPE = 0
CLASSIFICATION_TYPE = U
NORAD_CAT_ID   = 66400
ELEMENT_SET_NO = 999
REV_AT_EPOCH   = 324
BSTAR          = .21487E-3
MEAN_MOTION_DOT = .30903E-3
MEAN_MOTION_DDOT = 0

CCSDS_OMM_VERS = 2.0
CREATION_DATE  = 
ORIGINATOR     = 

OBJECT_NAME    = STARLINK-35668
OBJECT_ID      = 2025-257X
CENTER_NAME    = EARTH
REF_FRAME      = TEME
TIME_SYSTEM    = UTC
MEAN_ELEMENT_THEORY = SGP/SGP4

EPOCH          = 2025-11-22T12:00:02.998944
MEAN_MOTION    = 15.74181503
ECCENTRICITY   = .0000921
INCLINATION    = 53.1568
RA_OF_ASC_NODE = 1.2739
ARG_OF_PERICENTER = 63.3657
MEAN_ANOMALY   = 267.7116

EPHEMERIS_TYPE = 0
CLASSIFICATION_TYPE = U
NORAD_CAT_ID   = 66401
ELEMENT_SET_NO = 999
REV_AT_EPOCH   = 324
BSTAR          = -.37414E-4
MEAN_MOTION_DOT = -.6102E-4
MEAN_MOTION_DDOT = 0

CCSDS_OMM_VERS = 2.0
CREATION_DATE  = 
ORIGINATOR     = 

OBJECT_NAME    = STARLINK-35644
OBJECT_ID      = 2025-257Y
CENTER_NAME    = EARTH
REF_FRAME      = TEME
TIME_SYSTEM    = UTC
MEAN_ELEMENT_THEORY = SGP/SGP4

EPOCH          = 2025-11-22T12:00:02.998944
MEAN_MOTION    = 15.74210503
ECCENTRICITY   = .0001912
INCLINATION    = 53.1567
RA_OF_ASC_NODE = 1.2818
ARG_OF_PERICENTER = 83.2724
MEAN_ANOMALY   = 243.9596

EPHEMERIS_TYPE = 0
CLASSIFICATION_TYPE = U
NORAD_CAT_ID   = 66402
ELEMENT_SET_NO = 999
REV_AT_EPOCH   = 324
BSTAR          = -.47586E-3
MEAN_MOTION_DOT = -.69818E-3
MEAN_MOTION_DDOT = 0

CCSDS_OMM_VERS = 2.0
CREATION_DATE  = 
ORIGINATOR     = 

OBJECT_NAME    = STARLINK-35602
OBJECT_ID      = 2025-257Z
CENTER_NAME    = EARTH
REF_FRAME      = TEME
TIME_SYSTEM    = UTC
MEAN_ELEMENT_THEORY = SGP/SGP4

EPOCH          = 2025-11-22T12:00:02.998944
MEAN_MOTION    = 15.74224875
ECCENTRICITY   = .0000974
INCLINATION    = 53.1562
RA_OF_ASC_NODE = 1.2699
ARG_OF_PERICENTER = 77.1792
MEAN_ANOMALY   = 255.7714

EPHEMERIS_TYPE = 0
CLASSIFICATION_TYPE = U
NORAD_CAT_ID   = 66403
ELEMENT_SET_NO = 999
REV_AT_EPOCH   = 324
BSTAR          = -.22377E-3
MEAN_MOTION_DOT = -.33322E-3
MEAN_MOTION_DDOT = 0

CCSDS_OMM_VERS = 2.0
CREATION_DATE  = 
ORIGINATOR     = 

OBJECT_NAME    = STARLINK-35691
OBJECT_ID      = 2025-257AA
CENTER_NAME    = EARTH
REF_FRAME      = TEME
TIME_SYSTEM    = UTC
MEAN_ELEMENT_THEORY = SGP/SGP4

EPOCH          = 2025-11-22T12:00:02.998944
MEAN_MOTION    = 15.74116971
ECCENTRICITY   = .0001099
INCLINATION    = 53.1568
RA_OF_ASC_NODE = 1.2660
ARG_OF_PERICENTER = 85.0070
MEAN_ANOMALY   = 249.9233

EPHEMERIS_TYPE = 0
CLASSIFICATION_TYPE = U
NORAD_CAT_ID   = 66404
ELEMENT_SET_NO = 999
REV_AT_EPOCH   = 324
BSTAR          = .77926E-3
MEAN_MOTION_DOT = .114701E-2
MEAN_MOTION_DDOT = 0

